CCSDS_OMM_VERS = 2.0
CREATION_DATE  = 
ORIGINATOR     = 

OBJECT_NAME    = SL-14 R/B
OBJECT_ID      = 1986-046B
CENTER_NAME    = EARTH
REF_FRAME      = TEME
TIME_SYSTEM    = UTC
MEAN_ELEMENT_THEORY = SGP/SGP4

EPOCH          = 2026-03-11T02:05:23.064864
MEAN_MOTION    = 14.85591753
ECCENTRICITY   = .00220582
INCLINATION    = 82.4783
RA_OF_ASC_NODE = 78.8610
ARG_OF_PERICENTER = 220.5207
MEAN_ANOMALY   = 139.4368

EPHEMERIS_TYPE = 0
CLASSIFICATION_TYPE = U
NORAD_CAT_ID   = 16792
ELEMENT_SET_NO = 999
REV_AT_EPOCH   = 12661
BSTAR          = .60552236E-4
MEAN_MOTION_DOT = .55E-5
MEAN_MOTION_DDOT = 0

CCSDS_OMM_VERS = 2.0
CREATION_DATE  = 
ORIGINATOR     = 

OBJECT_NAME    = SL-14 R/B
OBJECT_ID      = 1986-055B
CENTER_NAME    = EARTH
REF_FRAME      = TEME
TIME_SYSTEM    = UTC
MEAN_ELEMENT_THEORY = SGP/SGP4

EPOCH          = 2026-03-11T05:12:52.890912
MEAN_MOTION    = 14.85644148
ECCENTRICITY   = .00180429
INCLINATION    = 82.5199
RA_OF_ASC_NODE = 125.2384
ARG_OF_PERICENTER = 331.3423
MEAN_ANOMALY   = 89.8517

EPHEMERIS_TYPE = 0
CLASSIFICATION_TYPE = U
NORAD_CAT_ID   = 16882
ELEMENT_SET_NO = 999
REV_AT_EPOCH   = 11959
BSTAR          = .53043158E-4
MEAN_MOTION_DOT = .485E-5
MEAN_MOTION_DDOT = 0

CCSDS_OMM_VERS = 2.0
CREATION_DATE  = 
ORIGINATOR     = 

OBJECT_NAME    = AJISAI (EGS)
OBJECT_ID      = 1986-061A
CENTER_NAME    = EARTH
REF_FRAME      = TEME
TIME_SYSTEM    = UTC
MEAN_ELEMENT_THEORY = SGP/SGP4

EPOCH          = 2026-03-11T07:25:04.797984
MEAN_MOTION    = 12.44515665
ECCENTRICITY   = .00112716
INCLINATION    = 50.0080
RA_OF_ASC_NODE = 88.3678
ARG_OF_PERICENTER = 291.1709
MEAN_ANOMALY   = 81.9107

EPHEMERIS_TYPE = 0
CLASSIFICATION_TYPE = U
NORAD_CAT_ID   = 16908
ELEMENT_SET_NO = 999
REV_AT_EPOCH   = 46820
BSTAR          = -.17922273E-4
MEAN_MOTION_DOT = -.1E-5
MEAN_MOTION_DDOT = 0

CCSDS_OMM_VERS = 2.0
CREATION_DATE  = 
ORIGINATOR     = 

OBJECT_NAME    = SL-14 R/B
OBJECT_ID      = 1987-024B
CENTER_NAME    = EARTH
REF_FRAME      = TEME
TIME_SYSTEM    = UTC
MEAN_ELEMENT_THEORY = SGP/SGP4

EPOCH          = 2026-03-11T07:43:36.889536
MEAN_MOTION    = 14.86133606
ECCENTRICITY   = .00167172
INCLINATION    = 82.5246
RA_OF_ASC_NODE = 91.2292
ARG_OF_PERICENTER = 254.0347
MEAN_ANOMALY   = 105.9028

EPHEMERIS_TYPE = 0
CLASSIFICATION_TYPE = U
NORAD_CAT_ID   = 17567
ELEMENT_SET_NO = 999
REV_AT_EPOCH   = 8837
BSTAR          = .57258748E-4
MEAN_MOTION_DOT = .527E-5
MEAN_MOTION_DDOT = 0

CCSDS_OMM_VERS = 2.0
CREATION_DATE  = 
ORIGINATOR     = 

OBJECT_NAME    = COSMOS 1833
OBJECT_ID      = 1987-027A
CENTER_NAME    = EARTH
REF_FRAME      = TEME
TIME_SYSTEM    = UTC
MEAN_ELEMENT_THEORY = SGP/SGP4

EPOCH          = 2026-03-11T03:13:39.950688
MEAN_MOTION    = 14.13054436
ECCENTRICITY   = .00242011
INCLINATION    = 70.9221
RA_OF_ASC_NODE = 322.9827
ARG_OF_PERICENTER = 212.5110
MEAN_ANOMALY   = 147.4522

EPHEMERIS_TYPE = 0
CLASSIFICATION_TYPE = U
NORAD_CAT_ID   = 17589
ELEMENT_SET_NO = 999
REV_AT_EPOCH   = 1052
BSTAR          = -.75051122E-4
MEAN_MOTION_DOT = -.189E-5
MEAN_MOTION_DDOT = 0

CCSDS_OMM_VERS = 2.0
CREATION_DATE  = 
ORIGINATOR     = 

OBJECT_NAME    = SL-16 R/B
OBJECT_ID      = 1987-027B
CENTER_NAME    = EARTH
REF_FRAME      = TEME
TIME_SYSTEM    = UTC
MEAN_ELEMENT_THEORY = SGP/SGP4

EPOCH          = 2026-03-10T23:06:26.651808
MEAN_MOTION    = 14.17166007
ECCENTRICITY   = .0003379
INCLINATION    = 71.0012
RA_OF_ASC_NODE = 273.8126
ARG_OF_PERICENTER = 140.0020
MEAN_ANOMALY   = 220.1353

EPHEMERIS_TYPE = 0
CLASSIFICATION_TYPE = U
NORAD_CAT_ID   = 17590
ELEMENT_SET_NO = 999
REV_AT_EPOCH   = 1552
BSTAR          = .92841E-4
MEAN_MOTION_DOT = .139E-5
MEAN_MOTION_DDOT = 0

CCSDS_OMM_VERS = 2.0
CREATION_DATE  = 
ORIGINATOR     = 

OBJECT_NAME    = SL-14 R/B
OBJECT_ID      = 1987-038B
CENTER_NAME    = EARTH
REF_FRAME      = TEME
TIME_SYSTEM    = UTC
MEAN_ELEMENT_THEORY = SGP/SGP4

EPOCH          = 2026-03-11T01:09:33.904512
MEAN_MOTION    = 14.85370579
ECCENTRICITY   = .00197868
INCLINATION    = 82.4999
RA_OF_ASC_NODE = 295.5279
ARG_OF_PERICENTER = 156.0818
MEAN_ANOMALY   = 204.1322

EPHEMERIS_TYPE = 0
CLASSIFICATION_TYPE = U
NORAD_CAT_ID   = 17912
ELEMENT_SET_NO = 999
REV_AT_EPOCH   = 7943
BSTAR          = .53733938E-4
MEAN_MOTION_DOT = .488E-5
MEAN_MOTION_DDOT = 0

CCSDS_OMM_VERS = 2.0
CREATION_DATE  = 
ORIGINATOR     = 

OBJECT_NAME    = COSMOS 1844
OBJECT_ID      = 1987-041A
CENTER_NAME    = EARTH
REF_FRAME      = TEME
TIME_SYSTEM    = UTC
MEAN_ELEMENT_THEORY = SGP/SGP4

EPOCH          = 2026-03-11T07:25:45.794784
MEAN_MOTION    = 14.14551754
ECCENTRICITY   = .0030107
INCLINATION    = 70.9000
RA_OF_ASC_NODE = 30.7579
ARG_OF_PERICENTER = 15.3578
MEAN_ANOMALY   = 344.8450

EPHEMERIS_TYPE = 0
CLASSIFICATION_TYPE = U
NORAD_CAT_ID   = 17973
ELEMENT_SET_NO = 999
REV_AT_EPOCH   = 381
BSTAR          = -.57148378E-4
MEAN_MOTION_DOT = -.159E-5
MEAN_MOTION_DDOT = 0

CCSDS_OMM_VERS = 2.0
CREATION_DATE  = 
ORIGINATOR     = 

OBJECT_NAME    = SL-14 R/B
OBJECT_ID      = 1987-055B
CENTER_NAME    = EARTH
REF_FRAME      = TEME
TIME_SYSTEM    = UTC
MEAN_ELEMENT_THEORY = SGP/SGP4

EPOCH          = 2026-03-11T05:26:57.039648
MEAN_MOTION    = 14.85631545
ECCENTRICITY   = .00210364
INCLINATION    = 82.5030
RA_OF_ASC_NODE = 347.5829
ARG_OF_PERICENTER = 12.7804
MEAN_ANOMALY   = 347.3941

EPHEMERIS_TYPE = 0
CLASSIFICATION_TYPE = U
NORAD_CAT_ID   = 18153
ELEMENT_SET_NO = 999
REV_AT_EPOCH   = 7016
BSTAR          = .71783124E-4
MEAN_MOTION_DOT = .648E-5
MEAN_MOTION_DDOT = 0

CCSDS_OMM_VERS = 2.0
CREATION_DATE  = 
ORIGINATOR     = 

OBJECT_NAME    = COSMOS 1867
OBJECT_ID      = 1987-060A
CENTER_NAME    = EARTH
REF_FRAME      = TEME
TIME_SYSTEM    = UTC
MEAN_ELEMENT_THEORY = SGP/SGP4

EPOCH          = 2026-03-11T01:09:14.702112
MEAN_MOTION    = 14.31503269
ECCENTRICITY   = .00144987
INCLINATION    = 65.0111
RA_OF_ASC_NODE = 302.9016
ARG_OF_PERICENTER = 278.7442
MEAN_ANOMALY   = 81.2000

EPHEMERIS_TYPE = 0
CLASSIFICATION_TYPE = U
NORAD_CAT_ID   = 18187
ELEMENT_SET_NO = 999
REV_AT_EPOCH   = 2013
BSTAR          = .30080651E-4
MEAN_MOTION_DOT = -.2E-6
MEAN_MOTION_DDOT = 0

CCSDS_OMM_VERS = 2.0
CREATION_DATE  = 
ORIGINATOR     = 

OBJECT_NAME    = SL-14 R/B
OBJECT_ID      = 1988-001B
CENTER_NAME    = EARTH
REF_FRAME      = TEME
TIME_SYSTEM    = UTC
MEAN_ELEMENT_THEORY = SGP/SGP4

EPOCH          = 2026-03-11T06:57:20.822112
MEAN_MOTION    = 14.85530107
ECCENTRICITY   = .00169261
INCLINATION    = 82.5155
RA_OF_ASC_NODE = 193.8554
ARG_OF_PERICENTER = 230.0391
MEAN_ANOMALY   = 129.9340

EPHEMERIS_TYPE = 0
CLASSIFICATION_TYPE = U
NORAD_CAT_ID   = 18749
ELEMENT_SET_NO = 999
REV_AT_EPOCH   = 4226
BSTAR          = .7888578E-4
MEAN_MOTION_DOT = .707E-5
MEAN_MOTION_DDOT = 0

CCSDS_OMM_VERS = 2.0
CREATION_DATE  = 
ORIGINATOR     = 

OBJECT_NAME    = COSMOS 1933
OBJECT_ID      = 1988-020A
CENTER_NAME    = EARTH
REF_FRAME      = TEME
TIME_SYSTEM    = UTC
MEAN_ELEMENT_THEORY = SGP/SGP4

EPOCH          = 2026-03-10T21:51:27.358848
MEAN_MOTION    = 15.17996112
ECCENTRICITY   = .0004003
INCLINATION    = 82.5101
RA_OF_ASC_NODE = 249.7032
ARG_OF_PERICENTER = 176.6218
MEAN_ANOMALY   = 183.5044

EPHEMERIS_TYPE = 0
CLASSIFICATION_TYPE = U
NORAD_CAT_ID   = 18958
ELEMENT_SET_NO = 999
REV_AT_EPOCH   = 5041
BSTAR          = .27811E-3
MEAN_MOTION_DOT = .5683E-4
MEAN_MOTION_DDOT = 0

